IRIDIUM 8 [+]           
1 24792U 97020A   17197.81846478  .00000165  00000-0  51746-4 0  9992
2 24792  86.3975 306.2961 0002308  93.1024 267.0436 14.34216740 57218
IRIDIUM 7 [+]           
1 24793U 97020B   17197.88174836  .00000085  00000-0  23326-4 0  9996
2 24793  86.3981 306.5555 0002287  92.1041 268.0416 14.34221319 57220
IRIDIUM 6 [+]           
1 24794U 97020C   17197.80572808  .00000165  00000-0  51965-4 0  9999
2 24794  86.3979 306.5167 0002253  95.5058 264.6395 14.34216551 57203
IRIDIUM 5 [+]           
1 24795U 97020D   17197.79943474  .00000179  00000-0  56764-4 0  9996
2 24795  86.3992 306.5326 0002293  98.1654 261.9802 14.34216753 57488
IRIDIUM 4 [-]           
1 24796U 97020E   17197.85613486  .00000107  00000-0  30399-4 0  9998
2 24796  86.3975 305.4206 0002256  92.1196  22.5806 14.35164507 57529
IRIDIUM 914 [-]         
1 24836U 97030A   17197.89009794  .00000111  00000-0  29578-4 0  9991
2 24836  86.3956 322.0857 0003060  60.0150 300.1351 14.38766301191115
IRIDIUM 12 [+]          
1 24837U 97030B   17197.90700337  .00000104  00000-0  29950-4 0  9991
2 24837  86.3970 337.6624 0002270  92.8508  18.9602 14.34214376 50920
IRIDIUM 10 [+]          
1 24839U 97030D   17197.96538289  .00000122  00000-0  36333-4 0  9997
2 24839  86.3970 337.6175 0002267  92.8970  25.8773 14.34217461 51208
IRIDIUM 13 [+]          
1 24840U 97030E   17197.88632950  .00000116  00000-0  31316-4 0  9999
2 24840  86.4253 337.7972 0002556  99.1540 260.9947 14.38687409 51218
IRIDIUM 16 [-]          
1 24841U 97030F   17197.94015586  .00000157  00000-0  46729-4 0  9996
2 24841  86.4051 337.5485 0003032 140.7413 219.4005 14.36723182 51596
IRIDIUM 911 [-]         
1 24842U 97030G   17197.88658548  .00000120  00000-0  28517-4 0  9996
2 24842  86.4478 338.3374 0014309   1.6923 358.4325 14.44968994 57244
IRIDIUM 15 [+]          
1 24869U 97034A   17197.59062589 -.00000078  00000-0 -32026-4 0  9995
2 24869  86.4175   9.7734 0001633  87.5225 272.6161 14.38607263 47897
IRIDIUM 17 [-]          
1 24870U 97034B   17197.92844100  .00000125  00000-0  36238-4 0  9991
2 24870  86.3960   7.7084 0003902 103.5398 256.6234 14.35765246 48445
IRIDIUM 920 [-]         
1 24871U 97034C   17197.91606965  .00000108  00000-0  28230-4 0  9990
2 24871  86.3981 353.8275 0009852 236.4415 123.5844 14.39478984 50369
IRIDIUM 18 [+]          
1 24872U 97034D   17197.51473366 -.00000063  00000-0 -27096-4 0  9995
2 24872  86.4201   9.8081 0001482  91.9511 268.1857 14.38612607 48101
IRIDIUM 921 [-]         
1 24873U 97034E   17197.83748929  .00000620  00000-0  34669-4 0  9992
2 24873  86.3914  51.9702 0005165 267.3790  92.6857 15.11392018 92292
IRIDIUM 26 [-]          
1 24903U 97043A   17194.23320944 -.00000010  00000-0 -10373-4 0  9991
2 24903  86.3964 243.8803 0002137  95.3907 264.7533 14.35261547 41700
IRIDIUM 25 [+]          
1 24904U 97043B   17197.86238221  .00000084  00000-0  23074-4 0  9991
2 24904  86.3949 243.0094 0002215  94.0792 266.0657 14.34218035 41876
IRIDIUM 46 [+]          
1 24905U 97043C   17197.66570393  .00000083  00000-0  22494-4 0  9993
2 24905  86.3963 243.0751 0001811  98.1271 262.0131 14.34219667 42057
IRIDIUM 23 [+]          
1 24906U 97043D   17197.68155094  .00000081  00000-0  21719-4 0  9990
2 24906  86.3962 243.1390 0002160  90.9776  23.6574 14.34221438 41785
IRIDIUM 22 [+]          
1 24907U 97043E   17197.84328893  .00000085  00000-0  23170-4 0  9995
2 24907  86.3959 243.6900 0002268  92.2508 267.8948 14.34219864 42093
DUMMY MASS 1 [-]        
1 24925U 97048A   17197.55923196  .00000081  00000-0  61960-5 0  9991
2 24925  86.3335  29.8688 0005060 312.0166  48.0627 14.85138205 75942
DUMMY MASS 2 [-]        
1 24926U 97048B   17197.93924497  .00000104  00000-0  90020-5 0  9994
2 24926  86.3335  30.8143 0006037 318.5758  41.5007 14.84906345 75604
IRIDIUM 29 [-]          
1 24944U 97051A   17197.75548545  .00000094  00000-0  26266-4 0  9992
2 24944  86.3967 274.4992 0002281  87.2810 272.8647 14.34609092 38454
IRIDIUM 32 [+]          
1 24945U 97051B   17197.73260718  .00000136  00000-0  41666-4 0  9992
2 24945  86.3962 274.7367 0002252  92.1031 268.0423 14.34217579 38653
IRIDIUM 33 [-]          
1 24946U 97051C   17197.70882042  .00000076  00000-0  20448-4 0  9998
2 24946  86.3881 274.3666 0009403 136.1754 224.0190 14.33558976 38255
IRIDIUM 28 [-]          
1 24948U 97051E   17197.75143665  .00000049  00000-0  10127-4 0  9999
2 24948  86.3970 273.7149 0002238 100.9091 259.2357 14.35557274 38759
IRIDIUM 30 [+]          
1 24949U 97051F   17197.72627396 -.00000007  00000-0 -97189-5 0  9995
2 24949  86.3988 274.8744 0002447 106.9629 253.1836 14.34225678 38425
IRIDIUM 31 [+]          
1 24950U 97051G   17197.71991337  .00000153  00000-0  47457-4 0  9997
2 24950  86.3963 274.8364 0002436  92.2952 267.8522 14.34221648 38722
IRIDIUM 19 [+]          
1 24965U 97056A   17197.84383690  .00000158  00000-0  49212-4 0  9995
2 24965  86.3976 306.2972 0002298  94.0310 266.1148 14.34216503 36808
IRIDIUM 35 [+]          
1 24966U 97056B   17197.78674121  .00000176  00000-0  55699-4 0  9997
2 24966  86.3975 306.3147 0002288  94.6443 265.5014 14.34217172 36498
IRIDIUM 36 [-]          
1 24967U 97056C   17197.82487038  .00000040  00000-0  68672-5 0  9998
2 24967  86.3989 305.3325 0002396  91.9181 268.2290 14.35610466 37110
IRIDIUM 37 [+]          
1 24968U 97056D   17197.90091357  .00000195  00000-0  62552-4 0  9994
2 24968  86.3977 306.4542 0002301  93.7041 266.4418 14.34217916 36586
IRIDIUM 34 [+]          
1 24969U 97056E   17197.85017737  .00000171  00000-0  54067-4 0  9995
2 24969  86.3978 306.4124 0002340  94.3863 265.7600 14.34217010 36799
IRIDIUM 43 [-]          
1 25039U 97069A   17197.92926264  .00060443 -17901-6  37520-3 0  9997
2 25039  86.4045   5.0855 0300870 290.8469  66.0803 15.34471148 31215
IRIDIUM 41 [+]          
1 25040U 97069B   17197.62238514 -.00000075  00000-0 -33675-4 0  9990
2 25040  86.3952   9.6498 0001977  90.3043 269.8379 14.34212374 30238
IRIDIUM 40 [-]          
1 25041U 97069C   17197.95276462  .00084010  25693-6  77703-3 0  9990
2 25041  86.3883   2.9330 0276342 165.7960 195.1271 15.31822381 31504
IRIDIUM 39 [B]          
1 25042U 97069D   17197.90764809  .00000175  00000-0  43246-4 0  9998
2 25042  86.3919   6.5273 0017868 208.1331 151.8908 14.46166563 30751
IRIDIUM 38 [-]          
1 25043U 97069E   17197.90442982  .00000130  00000-0  37850-4 0  9999
2 25043  86.3960   6.6752 0002573 124.7234 235.4205 14.36038227 30734
IRIDIUM 42 [-]          
1 25077U 97077A   17197.90402489  .00000077  00000-0  20140-4 0  9997
2 25077  86.3963   9.4753 0002236 103.6357 256.5088 14.34515631 26447
IRIDIUM 44 [-]          
1 25078U 97077B   17197.92538854  .00000144  00000-0  41004-4 0  9993
2 25078  86.3965 358.9683 0003071 125.5756 234.5729 14.38132444 27875
IRIDIUM 45 [+]          
1 25104U 97082A   17197.71356747  .00000154  00000-0  48066-4 0  9991
2 25104  86.3961 274.8688 0002155 119.3899 240.7512 14.34216834 24343
IRIDIUM 24 [-]          
1 25105U 97082B   17197.57855137  .00000087  00000-0  21453-4 0  9999
2 25105  86.3914 223.0416 0009507 242.9494 117.0735 14.39862683 26832
IRIDIUM 47 [+]          
1 25106U 97082C   17197.67204664  .00000072  00000-0  18504-4 0  9991
2 25106  86.3947 242.9592 0002139  90.3575 269.7866 14.34219686 24307
IRIDIUM 49 [+]          
1 25108U 97082E   17197.71101508  .00000082  00000-0  22230-4 0  9993
2 25108  86.3950 243.0463 0002192  91.8189  43.9423 14.34219640 24343
IRIDIUM 52 [+]          
1 25169U 98010A   17197.92340771  .00000115  00000-0  33998-4 0  9992
2 25169  86.3974 337.9539 0002283  93.1252 267.0205 14.34215074 15760
IRIDIUM 56 [+]          
1 25170U 98010B   17197.91704777  .00000186  00000-0  59490-4 0  9996
2 25170  86.3979 338.0622 0002226 100.0822 260.0625 14.34214544 15940
IRIDIUM 54 [+]          
1 25171U 98010C   17197.87908883  .00000120  00000-0  35668-4 0  9995
2 25171  86.3975 337.9935 0002286  92.5736 267.5721 14.34213289 16201
IRIDIUM 50 [+]          
1 25172U 98010D   17197.91070553  .00000096  00000-0  27209-4 0  9999
2 25172  86.3974 337.9363 0002277  90.5719 269.5738 14.34214294 15740
IRIDIUM 53 [+]          
1 25173U 98010E   17197.92985379  .00000104  00000-0  29926-4 0  9990
2 25173  86.3975 337.9348 0002287  92.9796 267.1661 14.34213546 15767
IRIDIUM 51 [S]          
1 25262U 98018A   17197.81211891  .00000210  00000-0  67960-4 0  9994
2 25262  86.4001 306.6480 0001823  86.4556 273.6848 14.34217056 15167
IRIDIUM 61 [+]          
1 25263U 98018B   17197.83748954  .00000170  00000-0  53687-4 0  9998
2 25263  86.3977 306.4461 0002273  93.9914 266.1542 14.34216828 10885
IRIDIUM 55 [+]          
1 25272U 98019A   17197.77064656  .00000146  00000-0  45052-4 0  9992
2 25272  86.3961 274.6288 0002257  93.1240 267.0214 14.34221925 10090
IRIDIUM 57 [-]          
1 25273U 98019B   17197.73645869  .00000012  00000-0 -28466-5 0  9994
2 25273  86.3970 274.9551 0002295  90.5795 269.5664 14.34268321 10081
IRIDIUM 58 [+]          
1 25274U 98019C   17197.82139128  .00000157  00000-0  48951-4 0  9990
2 25274  86.3968 275.1153 0002182  92.8313 267.3133 14.34221863 10106
IRIDIUM 59 [+]          
1 25275U 98019D   17197.75798568  .00000142  00000-0  43693-4 0  9994
2 25275  86.3963 274.9930 0002296  90.4227 269.7231 14.34217464 10383
IRIDIUM 60 [+]          
1 25276U 98019E   17197.69455867  .00000143  00000-0  43842-4 0  9997
2 25276  86.3959 274.6379 0002284  93.6826 266.4631 14.34217065 10082
IRIDIUM 62 [+]          
1 25285U 98021A   17197.58616064  .00000017  00000-0 -88797-6 0  9997
2 25285  86.3958 211.6127 0002179  88.8793 271.2653 14.34217075  9240
IRIDIUM 63 [-]          
1 25286U 98021B   17197.60633012  .00000093  00000-0  25918-4 0  9990
2 25286  86.3987 212.0157 0002236  85.3667  54.6666 14.34670253  8985
